COSMOS 2534 (758)       
1 44299U 19030A   26178.32513172  .00000100  00000+0  00000+0 0  9998
2 44299  64.3693 192.2752 0013563 275.0761  81.5437  2.13102451 55136
COSMOS 2544 (759)       
1 44850U 19088A   26176.94531591 -.00000063  00000+0  00000+0 0  9994
2 44850  65.5707  73.4383 0012923 257.6247 102.2670  2.13102928 50901
COSMOS 2545 (760)       
1 45358U 20018A   26177.14029434 -.00000086  00000+0  00000+0 0  9999
2 45358  64.3492 312.1035 0008760 229.5859 130.3273  2.13102524 48855
COSMOS 2564 (761)       
1 54377U 22161A   26177.15703373  .00000107  00000+0  00000+0 0  9996
2 54377  64.7425 192.4139 0012256 225.0447 134.9097  2.13102114 27822
